NORAD_CAT_ID,OBJECT_NAME,OBJECT_TYPE,EPOCH,MEAN_MOTION,ECCENTRICITY,INCLINATION,RA_OF_ASC_NODE,ARG_OF_PERICENTER,MEAN_ANOMALY,BSTAR,MEAN_MOTION_DOT,MEAN_MOTION_DDOT,TLE_LINE0,TLE_LINE1,TLE_LINE2,SEMIMAJOR_AXIS,PERIOD,APOGEE,PERIGEE,DECAYED
53294.0,STARLINK-4146,PAYLOAD,2022-07-28 20:00:01,15.90114199,0.0041902,53.2175,22.4111,52.8699,344.1276,-0.0039469,-0.01316412,0.00049521,0 STARLINK-4146,1 53294U 22086BE  22209.83334491 -.01316412  49521-3 -39469-2 0  9998,2 53294  53.2175  22.4111 0041902  52.8699 344.1276 15.90114199  1305,6680.1,90.56,329.956,273.974,0.0
53294.0,STARLINK-4146,PAYLOAD,2022-07-29 06:00:00,15.89052875,0.0036046,53.2177,20.2968,54.9141,207.8293,-0.0045159,-0.01395035,0.00054499,0 STARLINK-4146,1 53294U 22086BE  22210.25001157 -.01395035  54499-3 -45159-2 0  9997,2 53294  53.2177  20.2968 0036046  54.9141 207.8293 15.89052875  1361,6683.074000000001,90.62,329.029,280.849,0.0
53294.0,STARLINK-4146,PAYLOAD,2022-07-29 14:00:01,15.88148566,0.0033260999999999,53.2177,18.6097,55.2387,314.9309,-0.0045851,-0.01341469,0.00050319,0 STARLINK-4146,1 53294U 22086BE  22210.58334491 -.01341469  50319-3 -45851-2 0  9991,2 53294  53.2177  18.6097 0033261  55.2387 314.9309 15.88148566  1301,6685.611,90.672,329.713,285.2390000000001,0.0
53294.0,STARLINK-4146,PAYLOAD,2022-07-29 22:00:00,15.87253937,0.0029823,53.2173,16.9262,55.9675,60.5684,-0.0047218999999999,-0.01308556,0.00047698,0 STARLINK-4146,1 53294U 22086BE  22210.91667824 -.01308556  47698-3 -47219-2 0  9993,2 53294  53.2173  16.9262 0029823  55.9675  60.5684 15.87253937  1474,6688.123000000001,90.723,329.934,290.0420000000001,0.0
53294.0,STARLINK-4146,PAYLOAD,2022-07-30 06:00:00,15.86410437,0.0026825,53.2175,15.241,55.928,165.9026,-0.0052413999999999,-0.01381963,0.00052286,0 STARLINK-4146,1 53294U 22086BE  22211.25001157 -.01381963  52286-3 -52414-2 0  9997,2 53294  53.2175  15.2410 0026825  55.9280 165.9026 15.86410437  1529,6690.493,90.771,330.305,294.411,0.0
53294.0,STARLINK-4146,PAYLOAD,2022-07-30 14:00:01,15.85528228,0.0023361,53.2177,13.5605,55.0279,271.0531,-0.0054863,-0.01375283,0.00051416,0 STARLINK-4146,1 53294U 22086BE  22211.58334491 -.01375283  51416-3 -54863-2 0  9995,2 53294  53.2177  13.5605 0023361  55.0279 271.0531 15.85528228  1302,6692.975,90.821,330.475,299.204,0.0
53294.0,STARLINK-4146,PAYLOAD,2022-07-30 20:00:01,15.84873358,0.002064,53.2177,12.3027,56.4861,257.0864,-0.0057273,-0.01219337,0.0,0 STARLINK-4146,1 53294U 22086BE  22211.83334491 -.01219337  00000-0 -57273-2 0  9998,2 53294  53.2177  12.3027 0020640  56.4861 257.0864 15.84873358  1619,6694.818,90.859,330.501,302.865,0.0
53294.0,STARLINK-4146,PAYLOAD,2022-07-30 22:00:00,15.8461951,0.0019836,53.2174,11.8832,55.554,13.7296,-0.0055008,-0.01162268,0.0,0 STARLINK-4146,1 53294U 22086BE  22211.91667824 -.01162268  00000-0 -55008-2 0  9990,2 53294  53.2174  11.8832 0019836  55.5540  13.7296 15.84619510  1303,6695.533,90.874,330.68,304.117,0.0
53294.0,STARLINK-4146,PAYLOAD,2022-07-31 06:00:02,15.83758161,0.0017261,53.2174,10.2045,55.7551,115.7271,-0.0059169,-0.01189021,0.0,0 STARLINK-4146,1 53294U 22086BE  22212.25002315 -.01189021  00000-0 -59169-2 0  9994,2 53294  53.2174  10.2045 0017261  55.7551 115.7271 15.83758161  1688,6697.9609999999975,90.923,331.38699999999994,308.264,0.0
53294.0,STARLINK-4146,PAYLOAD,2022-07-31 14:00:01,15.82901015,0.0013465,53.2174,8.531,51.72,220.7695,-0.006404,-0.01245931,0.0,0 STARLINK-4146,1 53294U 22086BE  22212.58334491 -.01245931  00000-0 -64040-2 0  9990,2 53294  53.2174   8.5310 0013465  51.7200 220.7695 15.82901015  1305,6700.378000000002,90.972,331.266,313.221,0.0
53294.0,STARLINK-4146,PAYLOAD,2022-07-31 20:00:01,15.82241363,0.001193,53.2175,7.278,53.7964,203.8102,-0.0066073,-0.01243358,0.0,0 STARLINK-4146,1 53294U 22086BE  22212.83334491 -.01243358  00000-0 -66073-2 0  9997,2 53294  53.2175   7.2780 0011930  53.7964 203.8102 15.82241363  1776,6702.241,91.01,332.101,316.11,0.0
53294.0,STARLINK-4146,PAYLOAD,2022-07-31 22:00:00,15.81999225,0.0010998,53.2171,6.86,51.6138,320.9079,-0.0064613,-0.01205158,0.0,0 STARLINK-4146,1 53294U 22086BE  22212.91667824 -.01205158  00000-0 -64613-2 0  9999,2 53294  53.2171   6.8600 0010998  51.6138 320.9079 15.81999225  1300,6702.925,91.024,332.161,317.418,0.0
53294.0,STARLINK-4146,PAYLOAD,2022-08-01 14:00:01,15.80253255,0.0005194,53.2178,3.5209,30.8918,178.5084,-0.0071525,-0.01220276,0.0,0 STARLINK-4146,1 53294U 22086BE  22213.58334491 -.01220276  00000-0 -71525-2 0  9992,2 53294  53.2178   3.5209 0005194  30.8918 178.5084 15.80253255  1301,6707.861,91.125,333.21,326.242,0.0
53294.0,STARLINK-4146,PAYLOAD,2022-08-01 22:00:00,15.79375417,0.000361,53.2172,1.8562,17.9485,288.3075,-0.0074563,-0.01220195,0.0,0 STARLINK-4146,1 53294U 22086BE  22213.91667824 -.01220195  00000-0 -74563-2 0  9993,2 53294  53.2172   1.8562 0003610  17.9485 288.3075 15.79375417  1307,6710.346,91.175,334.634,329.789,0.0
53294.0,STARLINK-4146,PAYLOAD,2022-08-02 06:00:02,15.78487184,0.0003431,53.2172,0.1904,2.2107,39.9172,-0.0076653999999999,-0.01206096,0.0,0 STARLINK-4146,1 53294U 22086BE  22214.25002315 -.01206096  00000-0 -76654-2 0  9996,2 53294  53.2172   0.1904 0003431   2.2107  39.9172 15.78487184  2008,6712.863,91.227,337.031,332.425,0.0
53294.0,STARLINK-4146,PAYLOAD,2022-08-02 14:00:01,15.7760894,0.0003559,53.2173,358.5302,5.5825,131.2231,-0.0079741,-0.01205812,0.0,0 STARLINK-4146,1 53294U 22086BE  22214.58334491 -.01205812  00000-0 -79741-2 0  9990,2 53294  53.2173 358.5302 0003559   5.5825 131.2231 15.77608940  1303,6715.354,91.277,339.6090000000001,334.829,0.0
53294.0,STARLINK-4146,PAYLOAD,2022-08-03 06:00:00,15.75847187,0.0003805,53.2174,355.2126,343.6762,339.4529,-0.0085701,-0.01198721,0.0,0 STARLINK-4146,1 53294U 22086BE  22215.25001157 -.01198721  00000-0 -85701-2 0  9998,2 53294  53.2174 355.2126 0003805 343.6762 339.4529 15.75847187  2154,6720.358,91.379,344.781,339.666,0.0
53294.0,STARLINK-4146,PAYLOAD,2022-08-03 14:00:01,15.74983975,0.0003818,53.2177,353.5592,328.7941,85.9049,-0.0091066,-0.01222918,0.0,0 STARLINK-4146,1 53294U 22086BE  22215.58334491 -.01222918  00000-0 -91066-2 0  9991,2 53294  53.2177 353.5592 0003818 328.7941  85.9049 15.74983975  1303,6722.814,91.43,347.246,342.112,0.0
53294.0,STARLINK-4146,PAYLOAD,2022-08-03 22:00:01,15.73965964,2.53e-05,53.2172,351.9068,255.6687,249.6398,-0.0061811999999999,-0.00814813,0.0,0 STARLINK-4146,1 53294U 22086BE  22215.91668981 -.00814813  00000-0 -61812-2 0  9998,2 53294  53.2172 351.9068 0000253 255.6687 249.6398 15.73965964  1306,6725.712,91.489,347.747,347.407,0.0
53294.0,STARLINK-4146,PAYLOAD,2022-08-04 06:00:00,15.73239328,0.0001008,53.2172,350.2542,59.0319,175.7192,-0.00041363,-0.00058364,0.0,0 STARLINK-4146,1 53294U 22086BE  22216.25001157 -.00058364  00000-0 -41363-3 0  9993,2 53294  53.2172 350.2542 0001008  59.0319 175.7192 15.73239328  2313,6727.783,91.531,350.326,348.97,0.0
53294.0,STARLINK-4146,PAYLOAD,2022-08-04 12:00:00,15.73223776,5.45e-05,53.2188,349.0198,59.6073,151.7149,7.4194e-05,9.816e-05,0.0,0 STARLINK-4146,1 53294U 22086BE  22216.50001157  .00009816  00000-0  74194-4 0  9996,2 53294  53.2188 349.0198 0000545  59.6073 151.7149 15.73223776  2351,6727.8269999999975,91.532,350.059,349.326,0.0
53294.0,STARLINK-4146,PAYLOAD,2022-08-04 14:00:01,15.73204974,6.07e-05,53.2186,348.6079,53.4631,270.1023,0.00047364,0.00066393,0.0,0 STARLINK-4146,1 53294U 22086BE  22216.58334491  .00066393  00000-0  47364-3 0  9995,2 53294  53.2186 348.6079 0000607  53.4631 270.1023 15.73204974  1303,6727.880999999999,91.533,350.154,349.338,0.0
53294.0,STARLINK-4146,PAYLOAD,2022-08-04 22:00:00,15.73239342,7.070000000000001e-05,53.2192,346.9601,36.0029,16.5084,0.00021446,0.00029635,0.0,0 STARLINK-4146,1 53294U 22086BE  22216.91667824  .00029635  00000-0  21446-3 0  9992,2 53294  53.2192 346.9601 0000707  36.0029  16.5084 15.73239342  1307,6727.783,91.531,350.124,349.172,0.0
53294.0,STARLINK-4146,PAYLOAD,2022-08-05 12:00:00,15.73327329,8.420000000000001e-05,53.2195,344.0725,52.4677,65.7779,-0.00086846,-0.00121411,0.0,0 STARLINK-4146,1 53294U 22086BE  22217.50001157 -.00121411  00000-0 -86846-3 0  9991,2 53294  53.2195 344.0725 0000842  52.4677  65.7779 15.73327329  2511,6727.531999999997,91.526,349.964,348.831,0.0
53294.0,STARLINK-4146,PAYLOAD,2022-08-05 14:00:01,15.73294807,9.59e-05,53.2193,343.6607,49.8962,180.6842,-0.00062425,-0.00087672,0.0,0 STARLINK-4146,1 53294U 22086BE  22217.58335648 -.00087672  00000-0 -62425-3 0  9991,2 53294  53.2193 343.6607 0000959  49.8962 180.6842 15.73294807  1307,6727.625,91.528,350.135,348.845,0.0
53294.0,STARLINK-4146,PAYLOAD,2022-08-05 22:00:00,15.73242756,0.0001133,53.2187,342.0112,51.5059,268.0097,-0.00041335,-0.00058334,0.0,0 STARLINK-4146,1 53294U 22086BE  22217.91667824 -.00058334  00000-0 -41335-3 0  9992,2 53294  53.2187 342.0112 0001133  51.5059 268.0097 15.73242756  1305,6727.773,91.531,350.401,348.876,0.0
53294.0,STARLINK-4146,PAYLOAD,2022-08-06 06:00:00,15.73203044,0.0001137999999999,53.2172,340.3567,62.525,345.8484,6.8103e-06,3.36e-06,0.0,0 STARLINK-4146,1 53294U 22086BE  22218.25001157  .00000336  00000-0  68103-5 0  9992,2 53294  53.2172 340.3567 0001138  62.5250 345.8484 15.73203044  2632,6727.886,91.533,350.517,348.986,0.0
53294.0,STARLINK-4146,PAYLOAD,2022-08-06 14:00:01,15.73230674,0.0001056,53.2189,338.7122,50.3589,87.0628,-0.00044503,-0.00062693,0.0,0 STARLINK-4146,1 53294U 22086BE  22218.58334491 -.00062693  00000-0 -44503-3 0  9990,2 53294  53.2189 338.7122 0001056  50.3589  87.0628 15.73230674  2686,6727.808000000001,91.531,350.3830000000001,348.962,0.0
53294.0,STARLINK-4146,PAYLOAD,2022-08-06 22:00:00,15.73210018,0.0001054,53.219,337.0627,42.3686,183.9826,5.3102e-05,6.842e-05,0.0,0 STARLINK-4146,1 53294U 22086BE  22218.91667824  .00006842  00000-0  53102-4 0  9994,2 53294  53.2190 337.0627 0001054  42.3686 183.9826 15.73210018  2739,6727.8669999999975,91.533,350.441,349.022,0.0
